GLOBALSTAR M068         
1 32266U 07048D   25125.27112001 -.00000068  00000+0  19747-3 0  9992
2 32266  51.9887  73.0760 0001449  43.3223 104.0333 12.62822451812421
GLOBALSTAR M079         
1 37188U 10054A   25125.49994339 -.00000087  00000+0  92968-4 0  9995
2 37188  52.0039 269.7315 0000847 135.9477 300.5308 12.62273770671747
GLOBALSTAR M074         
1 37189U 10054B   25125.86285297 -.00000088  00000+0  86340-4 0  9991
2 37189  52.0016 267.9573 0000559 116.1799  48.9148 12.62274729671781
GLOBALSTAR M076         
1 37190U 10054C   25125.46596855 -.00000078  00000+0  14363-3 0  9998
2 37190  52.0028 269.3305 0000555 138.1860 263.9064 12.62262374671749
GLOBALSTAR M077         
1 37191U 10054D   25124.76710964 -.00000099  00000+0  24920-4 0  9994
2 37191  52.0071 228.3039 0000492 130.6398  33.3688 12.62267607671666
GLOBALSTAR M075         
1 37192U 10054E   25125.89724088 -.00000075  00000+0  16264-3 0  9997
2 37192  51.9954 310.3001 0000761  98.7194  43.5000 12.62264422671037
GLOBALSTAR M073         
1 37193U 10054F   25125.55230333 -.00000095  00000+0  48492-4 0  9997
2 37193  52.0056 225.1376 0000497 148.9254 223.9493 12.62271154672505
GLOBALSTAR M083         
1 37739U 11033A   25125.18054722 -.00000101  00000+0  14055-4 0  9992
2 37739  51.9839 175.0594 0000422 132.2890 290.8537 12.62263766641781
GLOBALSTAR M088         
1 37740U 11033B   25124.91033280 -.00000100  00000+0  22498-4 0  9999
2 37740  51.9731  81.4044 0000470  63.2894 332.5065 12.62265884636938
GLOBALSTAR M091         
1 37741U 11033C   25125.50795331 -.00000091  00000+0  73329-4 0  9996
2 37741  52.0018  43.0652 0000823  83.8354  88.1386 12.62267542638057
GLOBALSTAR M085         
1 37742U 11033D   25125.41535851 -.00000083  00000+0  11866-3 0  9994
2 37742  51.9889 354.4253 0000939  95.0288  76.2416 12.62268151638786
GLOBALSTAR M081         
1 37743U 11033E   25125.12412244 -.00000084  00000+0  11051-3 0  9990
2 37743  51.9983 358.0733 0000744  99.4431  67.1886 12.62263374638789
GLOBALSTAR M089         
1 37744U 11033F   25125.86991679 -.00000077  00000+0  14741-3 0  9997
2 37744  51.9938 310.0377 0000562  93.9195  44.3672 12.62269587639598
GLOBALSTAR M084         
1 38040U 11080A   25125.22892483 -.00000097  00000+0  35269-4 0  9993
2 38040  51.9990 179.2552 0000066 249.4082 153.9032 12.62265850617523
GLOBALSTAR M080         
1 38041U 11080B   25125.43128506 -.00000095  00000+0  50245-4 0  9994
2 38041  52.0042 180.2151 0000659  94.2791 279.2372 12.62262632617537
GLOBALSTAR M082         
1 38042U 11080C   25125.05535249 -.00000100  00000+0  23068-4 0  9999
2 38042  52.0048 136.8148 0000574  88.9442 305.5720 12.62266045618225
GLOBALSTAR M092         
1 38043U 11080D   25125.57849637 -.00000093  00000+0  59540-4 0  9991
2 38043  52.0080 225.5967 0000466 123.2495 249.9530 12.62264090616785
GLOBALSTAR M090         
1 38044U 11080E   25125.42726955 -.00000093  00000+0  60215-4 0  9994
2 38044  51.9858 129.5449 0000325  95.8314  69.6776 12.62270106618251
GLOBALSTAR M086         
1 38045U 11080F   25125.20122837 -.00000080  00000+0  13191-3 0  9996
2 38045  51.9870 130.7809 0000767 216.0257 242.2334 12.62270446618237
GLOBALSTAR M097         
1 39072U 13005A   25125.44373186 -.00000094  00000+0  55042-4 0  9994
2 39072  52.0065  44.5445 0000553  89.9792 270.1138 12.62271878565499
GLOBALSTAR M093         
1 39073U 13005B   25125.17961433 -.00000086  00000+0  97051-4 0  9990
2 39073  51.9833  38.7193 0000636  87.2450 272.8489 12.62264276565458
GLOBALSTAR M094         
1 39074U 13005C   25125.02132334 -.00000084  00000+0  11036-3 0  9991
2 39074  51.9967 313.5434 0000951 118.4799 241.6164 12.62270548566940
GLOBALSTAR M096         
1 39075U 13005D   25125.90561378 -.00000082  00000+0  12264-3 0  9995
2 39075  52.0097 359.3326 0000932 100.6774 259.4198 12.62270987566301
GLOBALSTAR M078         
1 39076U 13005E   25125.40381061 -.00000099  00000+0  25695-4 0  9991
2 39076  51.9868  85.4230 0001338  78.7119 281.3897 12.62261600564722
GLOBALSTAR M095         
1 39077U 13005F   25125.43029980 -.00000096  00000+0  43649-4 0  9990
2 39077  51.9795  82.5607 0000829  92.6543 267.4419 12.62269478564735
GLOBALSTAR M087         
1 52888U 22064A   25125.22333192 -.00000139  00000+0 -19561-3 0  9994
2 52888  51.9990 224.6003 0000675 133.3046 226.7877 12.62279115139942
